ONEWEB-0220             
1 48232U 21031Y   23288.57019533 -.00000303  00000+0 -85135-3 0  9994
2 48232  87.8953 123.9276 0001286  91.2795 268.8482 13.14502292120236
ONEWEB-0165             
1 48233U 21031Z   23288.59980307  .00000039  00000+0  70631-4 0  9993
2 48233  87.8947 123.9333 0001407  83.0191 277.1099 13.14505722120191
ONEWEB-0199             
1 48234U 21031AA  23288.58289572 -.00000167  00000+0 -48377-3 0  9994
2 48234  87.8945 123.9081 0001428  83.2812 276.8480 13.14501612120098
ONEWEB-0203             
1 48235U 21031AB  23288.57232683 -.00000211  00000+0 -60269-3 0  9999
2 48235  87.8948 123.9097 0001833  73.7401 286.3930 13.14501805120109
ONEWEB-0197             
1 48236U 21031AC  23288.55949356  .00000018  00000+0  13163-4 0  9995
2 48236  87.8946 123.9208 0001709  90.6151 269.5175 13.14504149120012
ONEWEB-0194             
1 48237U 21031AD  23288.60404453  .00000214  00000+0  54385-3 0  9994
2 48237  87.8948 123.9014 0001948  76.0046 284.1300 13.14504008120192
ONEWEB-0193             
1 48238U 21031AE  23288.62096285  .00000249  00000+0  63720-3 0  9998
2 48238  87.8948 123.9073 0001511  75.5916 284.5381 13.14503287120140
